start=new Date('2022-06-03T00:00:00.000Z').valueOf();
sats=[{"REV_AT_EPOCH":"2783","FILE":"3477983","EPHEMERIS_TYPE":"0","SITE":"AFETR","ELEMENT_SET_NO":"999","COUNTRY_CODE":"US","PERIOD":"95.437","MEAN_MOTION_DOT":"0.00000079","TLE_LINE1":"1 49753U 21115AF  22153.85042819  .00000079  00000-0  23082-4 0  9993","INCLINATION":"53.2182","GP_ID":"205213531","BSTAR":"0.00002308200000","MEAN_MOTION":"15.08845348","TLE_LINE2":"2 49753  53.2182 205.5094 0002592  30.7573 329.3570 15.08845348 27834","NORAD_CAT_ID":"49753","OBJECT_NAME":"STARLINK-3200","RA_OF_ASC_NODE":"205.5094","OBJECT_ID":"2021-115AF","REF_FRAME":"TEME","ECCENTRICITY":"0.00025920","MEAN_ANOMALY":"329.3570","CENTER_NAME":"EARTH","EPOCH":"2022-06-02T20:24:36.995616","TIME_SYSTEM":"UTC","MEAN_MOTION_DDOT":"0.0000000000000","DECAY_DATE":null,"OBJECT_TYPE":"PAYLOAD","MEAN_ELEMENT_THEORY":"SGP4","ARG_OF_PERICENTER":"30.7573","APOAPSIS":"541.522","LAUNCH_DATE":"2021-12-02","RCS_SIZE":"LARGE","SEMIMAJOR_AXIS":"6917.864","CLASSIFICATION_TYPE":"U","PERIAPSIS":"537.936"},{"TLE_LINE2":"2 49754  53.2121 200.0720 0008784 352.7050 169.5550 15.08862496 28926","NORAD_CAT_ID":"49754","RA_OF_ASC_NODE":"200.0720","OBJECT_NAME":"STARLINK-3193","OBJECT_ID":"2021-115AG","REF_FRAME":"TEME","ECCENTRICITY":"0.00087840","MEAN_ANOMALY":"169.5550","CENTER_NAME":"EARTH","EPOCH":"2022-06-01T20:00:01.000224","TIME_SYSTEM":"UTC","DECAY_DATE":null,"OBJECT_TYPE":"PAYLOAD","MEAN_MOTION_DDOT":"0.0000000000000","MEAN_ELEMENT_THEORY":"SGP4","ARG_OF_PERICENTER":"352.7050","APOAPSIS":"545.753","RCS_SIZE":"LARGE","LAUNCH_DATE":"2021-12-02","SEMIMAJOR_AXIS":"6917.812","CLASSIFICATION_TYPE":"U","PERIAPSIS":"533.600","REV_AT_EPOCH":"2892","FILE":"3477386","EPHEMERIS_TYPE":"0","SITE":"AFETR","ELEMENT_SET_NO":"999","COUNTRY_CODE":"US","PERIOD":"95.436","MEAN_MOTION_DOT":"-0.00055600","TLE_LINE1":"1 49754U 21115AG  22152.83334491 -.00055600  00000-0 -34967-2 0  9995","INCLINATION":"53.2121","GP_ID":"205153194","BSTAR":"-0.00349670000000","MEAN_MOTION":"15.08862496"},{"MEAN_MOTION":"15.08846059","BSTAR":"0.00004402300000","GP_ID":"205213030","MEAN_MOTION_DOT":"0.00000412","COUNTRY_CODE":"US","PERIOD":"95.437","INCLINATION":"53.2163","TLE_LINE1":"1 49755U 21115AH  22153.65906639  .00000412  00000-0  44023-4 0  9991","EPHEMERIS_TYPE":"0","SITE":"AFETR","FILE":"3477983","ELEMENT_SET_NO":"999","REV_AT_EPOCH":"2780","LAUNCH_DATE":"2021-12-02","RCS_SIZE":"LARGE","SEMIMAJOR_AXIS":"6917.862","CLASSIFICATION_TYPE":"U","APOAPSIS":"542.051","PERIAPSIS":"537.403","TIME_SYSTEM":"UTC","MEAN_MOTION_DDOT":"0.0000000000000","DECAY_DATE":null,"OBJECT_TYPE":"PAYLOAD","MEAN_ELEMENT_THEORY":"SGP4","ARG_OF_PERICENTER":"20.8874","ECCENTRICITY":"0.00033590","MEAN_ANOMALY":"339.2255","CENTER_NAME":"EARTH","EPOCH":"2022-06-02T15:49:03.336096","TLE_LINE2":"2 49755  53.2163 206.3570 0003359  20.8874 339.2255 15.08846059 27806","NORAD_CAT_ID":"49755","REF_FRAME":"TEME","OBJECT_ID":"2021-115AH","RA_OF_ASC_NODE":"206.3570","OBJECT_NAME":"STARLINK-3210"},{"ELEMENT_SET_NO":"999","SITE":"AFETR","EPHEMERIS_TYPE":"0","FILE":"3477946","REV_AT_EPOCH":"2907","MEAN_MOTION":"15.08831477","BSTAR":"-0.00002875400000","GP_ID":"205189091","INCLINATION":"53.2156","TLE_LINE1":"1 49756U 21115AJ  22153.81455290 -.00000746  00000-0 -28754-4 0  9997","MEAN_MOTION_DOT":"-0.00000746","PERIOD":"95.438","COUNTRY_CODE":"US","EPOCH":"2022-06-02T19:32:57.370560","CENTER_NAME":"EARTH","MEAN_ANOMALY":"307.5350","ECCENTRICITY":"0.00016880","REF_FRAME":"TEME","OBJECT_ID":"2021-115AJ","RA_OF_ASC_NODE":"195.6709","OBJECT_NAME":"STARLINK-3207","NORAD_CAT_ID":"49756","TLE_LINE2":"2 49756  53.2156 195.6709 0001688  52.5795 307.5350 15.08831477 29073","PERIAPSIS":"538.604","SEMIMAJOR_AXIS":"6917.906","LAUNCH_DATE":"2021-12-02","RCS_SIZE":"LARGE","CLASSIFICATION_TYPE":"U","APOAPSIS":"540.939","ARG_OF_PERICENTER":"52.5795","MEAN_ELEMENT_THEORY":"SGP4","OBJECT_TYPE":"PAYLOAD","DECAY_DATE":null,"MEAN_MOTION_DDOT":"0.0000000000000","TIME_SYSTEM":"UTC"},{"DECAY_DATE":null,"OBJECT_TYPE":"PAYLOAD","MEAN_MOTION_DDOT":"0.0000000000000","MEAN_ELEMENT_THEORY":"SGP4","ARG_OF_PERICENTER":"44.0867","TIME_SYSTEM":"UTC","PERIAPSIS":"538.407","APOAPSIS":"541.140","LAUNCH_DATE":"2021-12-02","SEMIMAJOR_AXIS":"6917.908","RCS_SIZE":"LARGE","CLASSIFICATION_TYPE":"U","RA_OF_ASC_NODE":"195.7077","OBJECT_NAME":"STARLINK-3197","REF_FRAME":"TEME","OBJECT_ID":"2021-115AK","NORAD_CAT_ID":"49757","TLE_LINE2":"2 49757  53.2149 195.7077 0001975  44.0867 316.0282 15.08830820 29070","CENTER_NAME":"EARTH","EPOCH":"2022-06-02T19:22:21.646272","ECCENTRICITY":"0.00019750","MEAN_ANOMALY":"316.0282","TLE_LINE1":"1 49757U 21115AK  22153.80719498 -.00000531  00000-0 -15284-4 0  9996","INCLINATION":"53.2149","COUNTRY_CODE":"US","PERIOD":"95.438","MEAN_MOTION_DOT":"-0.00000531","GP_ID":"205189502","BSTAR":"-0.00001528400000","MEAN_MOTION":"15.08830820","REV_AT_EPOCH":"2907","ELEMENT_SET_NO":"999","FILE":"3477946","EPHEMERIS_TYPE":"0","SITE":"AFETR"},{"INCLINATION":"53.2148","TLE_LINE1":"1 49758U 21115AL  22153.82191684 -.00000657  00000-0 -23198-4 0  9992","MEAN_MOTION_DOT":"-0.00000657","COUNTRY_CODE":"US","PERIOD":"95.437","MEAN_MOTION":"15.08841700","BSTAR":"-0.00002319800000","GP_ID":"205189093","REV_AT_EPOCH":"2907","ELEMENT_SET_NO":"999","SITE":"AFETR","EPHEMERIS_TYPE":"0","FILE":"3477946","DECAY_DATE":null,"OBJECT_TYPE":"PAYLOAD","MEAN_MOTION_DDOT":"0.0000000000000","MEAN_ELEMENT_THEORY":"SGP4","ARG_OF_PERICENTER":"48.9113","TIME_SYSTEM":"UTC","PERIAPSIS":"538.369","LAUNCH_DATE":"2021-12-02","CLASSIFICATION_TYPE":"U","RCS_SIZE":"LARGE","SEMIMAJOR_AXIS":"6917.875","APOAPSIS":"541.111","OBJECT_ID":"2021-115AL","REF_FRAME":"TEME","OBJECT_NAME":"STARLINK-3194","RA_OF_ASC_NODE":"195.6385","NORAD_CAT_ID":"49758","TLE_LINE2":"2 49758  53.2148 195.6385 0001982  48.9113 311.2050 15.08841700 29075","CENTER_NAME":"EARTH","EPOCH":"2022-06-02T19:43:33.614976","MEAN_ANOMALY":"311.2050","ECCENTRICITY":"0.00019820"},{"EPHEMERIS_TYPE":"0","SITE":"AFETR","FILE":"3477924","ELEMENT_SET_NO":"999","REV_AT_EPOCH":"2907","MEAN_MOTION":"15.08849247","BSTAR":"0.00001500000000","GP_ID":"205189482","MEAN_MOTION_DOT":"-0.00000049","PERIOD":"95.437","COUNTRY_CODE":"US","INCLINATION":"53.2163","TLE_LINE1":"1 49759U 21115AM  22153.81087019 -.00000049  00000-0  15000-4 0  9995","ECCENTRICITY":"0.00020590","MEAN_ANOMALY":"320.6086","EPOCH":"2022-06-02T19:27:39.184416","CENTER_NAME":"EARTH","TLE_LINE2":"2 49759  53.2163 195.6903 0002059  39.5056 320.6086 15.08849247 29074","NORAD_CAT_ID":"49759","REF_FRAME":"TEME","OBJECT_ID":"2021-115AM","RA_OF_ASC_NODE":"195.6903","OBJECT_NAME":"STARLINK-3204","LAUNCH_DATE":"2021-12-02","RCS_SIZE":"LARGE","SEMIMAJOR_AXIS":"6917.852","CLASSIFICATION_TYPE":"U","APOAPSIS":"541.142","PERIAPSIS":"538.293","TIME_SYSTEM":"UTC","ARG_OF_PERICENTER":"39.5056","MEAN_ELEMENT_THEORY":"SGP4","MEAN_MOTION_DDOT":"0.0000000000000","DECAY_DATE":null,"OBJECT_TYPE":"PAYLOAD"},{"EPHEMERIS_TYPE":"0","SITE":"AFETR","FILE":"3477983","ELEMENT_SET_NO":"999","REV_AT_EPOCH":"2797","MEAN_MOTION":"15.08847670","GP_ID":"205212780","BSTAR":"0.00020643000000","MEAN_MOTION_DOT":"0.00002999","PERIOD":"95.437","COUNTRY_CODE":"US","INCLINATION":"53.2195","TLE_LINE1":"1 49760U 21115AN  22153.82928597  .00002999  00000-0  20643-3 0  9996","MEAN_ANOMALY":"321.6743","ECCENTRICITY":"0.00020920","EPOCH":"2022-06-02T19:54:10.307808","CENTER_NAME":"EARTH","TLE_LINE2":"2 49760  53.2195 195.5866 0002092  38.4398 321.6743 15.08847670 27978","NORAD_CAT_ID":"49760","REF_FRAME":"TEME","OBJECT_ID":"2021-115AN","OBJECT_NAME":"STARLINK-3199","RA_OF_ASC_NODE":"195.5866","SEMIMAJOR_AXIS":"6917.857","LAUNCH_DATE":"2021-12-02","RCS_SIZE":"LARGE","CLASSIFICATION_TYPE":"U","APOAPSIS":"541.169","PERIAPSIS":"538.275","TIME_SYSTEM":"UTC","ARG_OF_PERICENTER":"38.4398","MEAN_ELEMENT_THEORY":"SGP4","MEAN_MOTION_DDOT":"0.0000000000000","DECAY_DATE":null,"OBJECT_TYPE":"PAYLOAD"},{"ELEMENT_SET_NO":"999","SITE":"AFETR","EPHEMERIS_TYPE":"0","FILE":"3477947","REV_AT_EPOCH":"2907","MEAN_MOTION":"15.08843984","BSTAR":"0.00015525000000","GP_ID":"205189164","INCLINATION":"53.2171","TLE_LINE1":"1 49761U 21115AP  22153.81824339  .00002184  00000-0  15525-3 0  9994","MEAN_MOTION_DOT":"0.00002184","COUNTRY_CODE":"US","PERIOD":"95.437","CENTER_NAME":"EARTH","EPOCH":"2022-06-02T19:38:16.228896","MEAN_ANOMALY":"316.2980","ECCENTRICITY":"0.00018750","REF_FRAME":"TEME","OBJECT_ID":"2021-115AP","RA_OF_ASC_NODE":"195.6611","OBJECT_NAME":"STARLINK-3203","NORAD_CAT_ID":"49761","TLE_LINE2":"2 49761  53.2171 195.6611 0001875  43.8160 316.2980 15.08843984 29077","PERIAPSIS":"538.436","RCS_SIZE":"LARGE","LAUNCH_DATE":"2021-12-02","CLASSIFICATION_TYPE":"U","SEMIMAJOR_AXIS":"6917.868","APOAPSIS":"541.030","DECAY_DATE":null,"OBJECT_TYPE":"PAYLOAD","MEAN_MOTION_DDOT":"0.0000000000000","MEAN_ELEMENT_THEORY":"SGP4","ARG_OF_PERICENTER":"43.8160","TIME_SYSTEM":"UTC"},{"MEAN_MOTION_DOT":"-0.00027089","PERIOD":"95.437","COUNTRY_CODE":"US","INCLINATION":"53.2174","TLE_LINE1":"1 49762U 21115AQ  22152.83334491 -.00027089  00000-0 -16902-2 0  9993","MEAN_MOTION":"15.08841504","GP_ID":"205127519","BSTAR":"-0.00169020000000","REV_AT_EPOCH":"130","SITE":"AFETR","EPHEMERIS_TYPE":"0","FILE":"3476255","ELEMENT_SET_NO":"999","TIME_SYSTEM":"UTC","ARG_OF_PERICENTER":"28.2746","MEAN_ELEMENT_THEORY":"SGP4","DECAY_DATE":null,"OBJECT_TYPE":"PAYLOAD","MEAN_MOTION_DDOT":"0.0000000000000","RCS_SIZE":"LARGE","LAUNCH_DATE":"2021-12-02","SEMIMAJOR_AXIS":"6917.876","CLASSIFICATION_TYPE":"U","APOAPSIS":"541.257","PERIAPSIS":"538.224","TLE_LINE2":"2 49762  53.2174 200.0752 0002192  28.2746 279.2046 15.08841504  1301","NORAD_CAT_ID":"49762","REF_FRAME":"TEME","OBJECT_ID":"2021-115AQ","OBJECT_NAME":"STARLINK-3195","RA_OF_ASC_NODE":"200.0752","ECCENTRICITY":"0.00021920","MEAN_ANOMALY":"279.2046","EPOCH":"2022-06-01T20:00:01.000224","CENTER_NAME":"EARTH"}];
